OBJECT_NAME,OBJECT_ID,EPOCH,MEAN_MOTION,ECCENTRICITY,INCLINATION,RA_OF_ASC_NODE,ARG_OF_PERICENTER,MEAN_ANOMALY,EPHEMERIS_TYPE,CLASSIFICATION_TYPE,NORAD_CAT_ID,ELEMENT_SET_NO,REV_AT_EPOCH,BSTAR,MEAN_MOTION_DOT,MEAN_MOTION_DDOT
TOMORROW-S1,2024-149M,2026-07-14T11:42:18.928512,15.33086626,.00040067,97.3749,275.8793,132.8407,227.3172,0,U,60479,999,10627,.14249692E-3,.4476E-4,0
FLOCK 4BE-18,2024-149N,2026-07-14T04:49:24.334176,15.42695739,.00050519,97.3735,279.2278,147.6731,212.4827,0,U,60480,999,10647,.1908525E-3,.8241E-4,0
FLOCK 4BE-7,2024-149P,2026-07-14T11:49:55.902432,15.41435205,.00042605,97.3760,278.8148,150.4267,209.7222,0,U,60481,999,10645,.32474767E-3,.1351E-3,0
TOMORROW-S2,2024-149T,2026-07-14T04:35:18.128256,15.33131975,.00037589,97.3818,276.0988,151.9164,208.2282,0,U,60485,999,10622,.14328896E-3,.4507E-4,0
FLOCK 4BE-36,2024-149U,2026-07-14T11:34:16.695552,15.43526717,.00047345,97.3746,280.2519,154.7282,205.4198,0,U,60486,999,10656,.24408903E-3,.10867E-3,0
FLOCK 4BE-25,2024-149V,2026-07-14T04:44:40.391808,15.39528787,.0003557,97.3800,278.5429,144.9107,215.2373,0,U,60487,999,10639,.23328235E-3,.9083E-4,0
FLOCK 4BE-31,2024-149W,2026-07-14T05:27:48.744864,15.45131313,.00036763,97.3802,280.9340,154.0729,206.0705,0,U,60488,999,10655,.2882676E-3,.13571E-3,0
FLOCK 4BE-20,2024-149X,2026-07-14T04:11:03.153120,15.38793694,.00049281,97.3697,277.3306,156.0910,204.0565,0,U,60489,999,10636,.23274343E-3,.8847E-4,0
FLOCK 4BE-23,2024-149Y,2026-07-14T11:55:54.965280,15.38353741,.00046859,97.3779,278.0459,158.8331,201.3109,0,U,60490,999,10639,.22619963E-3,.8473E-4,0
FLOCK 4BE-17,2024-149AA,2026-07-14T12:11:37.484736,15.40558379,.00043189,97.3776,279.1060,147.2796,212.8719,0,U,60492,999,10646,.25960064E-3,.10469E-3,0
NUSAT-50 (NANCY ROMAN),2024-149AB,2026-07-14T12:06:45.710208,15.30311777,.00048649,97.3787,276.5769,103.1143,257.0641,0,U,60493,999,10630,.19154945E-3,.5541E-4,0
FLOCK 4BE-22,2024-149AC,2026-07-14T11:09:23.980896,15.41971999,.00047036,97.3734,279.2982,156.4668,203.6795,0,U,60494,999,10650,.24014366E-3,.10145E-3,0
FLOCK 4BE-34,2024-149AD,2026-07-14T05:20:52.033344,15.41931670,.00048483,97.3784,279.8931,164.1670,195.9730,0,U,60495,999,10649,.23598167E-3,.9954E-4,0
TYCHE,2024-149AE,2026-07-14T13:07:32.223072,15.25826883,.00030682,97.3752,272.9948,166.7799,193.3520,0,U,60496,999,10607,.96448018E-4,.2395E-4,0
FLOCK 4BE-32,2024-149AF,2026-07-14T11:55:40.094976,15.43070198,.00049074,97.3718,279.7356,161.5024,198.6403,0,U,60497,999,10654,.2512687E-3,.11018E-3,0
NUSAT-48 (HENRIETTA LEAVITT),2024-149AG,2026-07-14T11:50:54.924000,15.30267965,.00046783,97.3921,276.8566,160.5701,199.5719,0,U,60498,999,10631,.18525506E-3,.5349E-4,0
NUSAT-49 (KLARA DAN VON NEUMANN),2024-149AJ,2026-07-14T11:16:51.164832,15.30374997,.0002447,97.3780,276.5750,165.8268,194.3042,0,U,60500,999,10630,.17444508E-3,.5048E-4,0
FLOCK 4BE-11,2024-149AK,2026-07-14T05:14:04.729920,15.43855222,.00047588,97.3704,279.7090,161.2091,198.9333,0,U,60501,999,10652,.24793611E-3,.11163E-3,0
YAM-7,2024-149AN,2026-07-14T03:55:33.908160,15.32173017,.0003544,97.3781,275.3085,171.3515,188.7789,0,U,60504,999,10618,.14088568E-3,.4298E-4,0
FLOCK 4BE-24,2024-149AP,2026-07-14T04:50:47.748192,15.44075487,.00051212,97.3716,279.9607,174.0171,186.1140,0,U,60505,999,10653,.28162071E-3,.1279E-3,0
LUR-1,2024-149AQ,2026-07-14T04:25:20.499456,15.30438894,.00038674,97.3738,273.8214,186.7165,173.4025,0,U,60506,999,10610,.14123901E-3,.4081E-4,0
TANAGER-1,2024-149AR,2026-07-14T12:01:19.777440,15.43889256,.00022894,97.2318,289.6368,131.3848,228.7597,0,U,60507,999,10725,.6115673E-5,.194E-5,0
EAGLEEYE,2024-149AS,2026-07-14T12:18:31.708800,15.76635702,.00050647,97.3724,290.4730,186.5375,173.5826,0,U,60508,999,10723,.54040794E-3,.86643E-3,0
FLOCK 4BE-29,2024-149AT,2026-07-14T04:39:01.189728,15.45422356,.00033935,97.3816,281.4914,178.2968,181.8293,0,U,60509,999,10658,.59684041E-3,.28526E-3,0
TRANSPORTER-11 OBJECT AU,2024-149AU,2026-07-14T04:59:29.308704,15.40956171,.00041001,97.3733,279.1569,170.9410,189.1912,0,U,60510,999,10647,.21632211E-3,.8824E-4,0
FLOCK 4BE-2,2024-149AV,2026-07-14T11:39:23.609952,15.55839058,.00053411,97.3837,283.6211,176.0262,184.1036,0,U,60511,999,10674,.66386756E-3,.46012E-3,0
FLOCK 4BE-13,2024-149AW,2026-07-14T12:52:19.738848,15.42605417,.000504,97.3725,280.2444,157.5741,202.5727,0,U,60512,999,10658,.20687511E-3,.8914E-4,0
