TOMORROW-S1             
1 60479U 24149M   26195.48771908  .00004476  00000+0  14250-3 0  9998
2 60479  97.3749 275.8793 0004006 132.8407 227.3172 15.33086626106273
FLOCK 4BE-18            
1 60480U 24149N   26195.20097609  .00008241  00000+0  19085-3 0  9994
2 60480  97.3735 279.2278 0005051 147.6731 212.4827 15.42695739106476
FLOCK 4BE-7             
1 60481U 24149P   26195.49300813  .00013510  00000+0  32475-3 0  9993
2 60481  97.3760 278.8148 0004260 150.4267 209.7222 15.41435205106458
TOMORROW-S2             
1 60485U 24149T   26195.19118204  .00004507  00000+0  14329-3 0  9999
2 60485  97.3818 276.0988 0003758 151.9164 208.2282 15.33131975106224
FLOCK 4BE-36            
1 60486U 24149U   26195.48213768  .00010867  00000+0  24409-3 0  9999
2 60486  97.3746 280.2519 0004734 154.7282 205.4198 15.43526717106564
FLOCK 4BE-25            
1 60487U 24149V   26195.19768972  .00009083  00000+0  23328-3 0  9997
2 60487  97.3800 278.5429 0003557 144.9107 215.2373 15.39528787106394
FLOCK 4BE-31            
1 60488U 24149W   26195.22764751  .00013571  00000+0  28827-3 0  9999
2 60488  97.3802 280.9340 0003676 154.0729 206.0705 15.45131313106557
FLOCK 4BE-20            
1 60489U 24149X   26195.17434205  .00008847  00000+0  23274-3 0  9993
2 60489  97.3697 277.3306 0004928 156.0910 204.0565 15.38793694106366
FLOCK 4BE-23            
1 60490U 24149Y   26195.49716395  .00008473  00000+0  22620-3 0  9992
2 60490  97.3779 278.0459 0004685 158.8331 201.3109 15.38353741106395
FLOCK 4BE-17            
1 60492U 24149AA  26195.50807274  .00010469  00000+0  25960-3 0  9991
2 60492  97.3776 279.1060 0004318 147.2796 212.8719 15.40558379106463
NUSAT-50 (NANCY ROMAN)  
1 60493U 24149AB  26195.50469572  .00005541  00000+0  19155-3 0  9991
2 60493  97.3787 276.5769 0004864 103.1143 257.0641 15.30311777106302
FLOCK 4BE-22            
1 60494U 24149AC  26195.46486089  .00010145  00000+0  24014-3 0  9995
2 60494  97.3734 279.2982 0004703 156.4668 203.6795 15.41971999106506
FLOCK 4BE-34            
1 60495U 24149AD  26195.22282446  .00009954  00000+0  23598-3 0  9993
2 60495  97.3784 279.8931 0004848 164.1670 195.9730 15.41931670106493
TYCHE                   
1 60496U 24149AE  26195.54690073  .00002395  00000+0  96448-4 0  9995
2 60496  97.3752 272.9948 0003068 166.7799 193.3520 15.25826883106078
FLOCK 4BE-32            
1 60497U 24149AF  26195.49699184  .00011018  00000+0  25127-3 0  9999
2 60497  97.3718 279.7356 0004907 161.5024 198.6403 15.43070198106546
NUSAT-48 (HENRIETTA LE*)
1 60498U 24149AG  26195.49369125  .00005349  00000+0  18526-3 0  9994
2 60498  97.3921 276.8566 0004678 160.5701 199.5719 15.30267965106311
NUSAT-49 (KLARA DAN VO*)
1 60500U 24149AJ  26195.47003663  .00005048  00000+0  17445-3 0  9993
2 60500  97.3780 276.5750 0002447 165.8268 194.3042 15.30374997106303
FLOCK 4BE-11            
1 60501U 24149AK  26195.21811030  .00011163  00000+0  24794-3 0  9991
2 60501  97.3704 279.7090 0004758 161.2091 198.9333 15.43855222106529
YAM-7                   
1 60504U 24149AN  26195.16358690  .00004298  00000+0  14089-3 0  9993
2 60504  97.3781 275.3085 0003544 171.3515 188.7789 15.32173017106185
FLOCK 4BE-24            
1 60505U 24149AP  26195.20194153  .00012790  00000+0  28162-3 0  9994
2 60505  97.3716 279.9607 0005121 174.0171 186.1140 15.44075487106532
LUR-1                   
1 60506U 24149AQ  26195.18426504  .00004081  00000+0  14124-3 0  9997
2 60506  97.3738 273.8214 0003867 186.7165 173.4025 15.30438894106106
TANAGER-1               
1 60507U 24149AR  26195.50092335  .00000194  00000+0  61157-5 0  9996
2 60507  97.2318 289.6368 0002289 131.3848 228.7597 15.43889256107257
EAGLEEYE                
1 60508U 24149AS  26195.51286700  .00086643  00000+0  54041-3 0  9994
2 60508  97.3724 290.4730 0005064 186.5375 173.5826 15.76635702107235
FLOCK 4BE-29            
1 60509U 24149AT  26195.19376377  .00028526  00000+0  59684-3 0  9993
2 60509  97.3816 281.4914 0003393 178.2968 181.8293 15.45422356106583
TRANSPORTER-11 OBJECT AU
1 60510U 24149AU  26195.20797811  .00008824  00000+0  21632-3 0  9998
2 60510  97.3733 279.1569 0004100 170.9410 189.1912 15.40956171106470
FLOCK 4BE-2             
1 60511U 24149AV  26195.48568993  .00046012  00000+0  66387-3 0  9993
2 60511  97.3837 283.6211 0005341 176.0262 184.1036 15.55839058106742
FLOCK 4BE-13            
1 60512U 24149AW  26195.53633957  .00008914  00000+0  20688-3 0  9996
2 60512  97.3725 280.2444 0005040 157.5741 202.5727 15.42605417106582
